STARLINK-2624           
1 48358U 21038F   26001.10896337  .00003182  00000+0  23234-3 0  9998
2 48358  53.0554 305.0037 0001266  72.0982 288.0145 15.06408253256839
STARLINK-2628           
1 48359U 21038G   26001.10529125  .00017969  00000+0  12221-2 0  9998
2 48359  53.0541 305.0163 0001025  87.6627 272.4480 15.06401689256832
STARLINK-2622           
1 48360U 21038H   26001.10159497  .00025054  00000+0  16940-2 0  9997
2 48360  53.0545 305.0322 0001174  91.5856 268.5267 15.06420543256837
STARLINK-2591           
1 48361U 21038J   26001.09791303  .00022717  00000+0  15383-2 0  9997
2 48361  53.0545 305.0491 0001232  97.1983 262.9146 15.06419128256834
STARLINK-2578           
1 48362U 21038K   26001.13109240  .00024792  00000+0  16765-2 0  9996
2 48362  53.0547 304.9861 0001215  85.6483 274.4645 15.06420733256841
STARLINK-2626           
1 48363U 21038L   26001.13160691  .01709973  22602-2  17413-2 0  9992
2 48363  53.0310 200.6948 0008178 225.0566 134.9805 16.10691390258312
STARLINK-2611           
1 48364U 21038M   26001.08549872  .00023889  00000+0  16165-2 0  9991
2 48364  53.0546 300.2682 0001445  89.0287 271.0867 15.06416857256905
STARLINK-2608           
1 48365U 21038N   26001.18130862  .00022484  00000+0  15221-2 0  9990
2 48365  53.0548 299.6739 0001354  83.0358 277.0785 15.06435096256927
STARLINK-2643           
1 48367U 21038Q   25365.23632924  .00002148  00000+0  16312-3 0  9994
2 48367  53.0548 298.9157 0001333  92.2129 267.9012 15.06380648256844
STARLINK-2623           
1 48368U 21038R   26001.07675596  .00018401  00000+0  12502-2 0  9992
2 48368  53.0555 295.4216 0001594  86.6513 273.4659 15.06423700256974
STARLINK-2621           
1 48370U 21038T   26001.09145573  .00025946  00000+0  17531-2 0  9993
2 48370  53.0545 295.0816 0001253 107.0678 253.0449 15.06424953256972
STARLINK-2589           
1 48371U 21038U   26001.08777301  .00018549  00000+0  12600-2 0  9996
2 48371  53.0549 295.0945 0001271 101.0583 259.0549 15.06425737256977
STARLINK-2609           
1 48373U 21038W   26001.08040051  .00023572  00000+0  15947-2 0  9992
2 48373  53.0543 295.1269 0001293  96.5429 263.5707 15.06432072256970
STARLINK-2604           
1 48374U 21038X   26001.17629391 -.00006863  00000+0 -44272-3 0  9993
2 48374  53.0545 295.0447 0001532 100.0090 260.1072 15.06363293256988
STARLINK-2603           
1 48375U 21038Y   26001.07302970  .00001745  00000+0  13597-3 0  9992
2 48375  53.0548 295.1721 0001652  65.0358 295.0802 15.06405345256970
STARLINK-2610           
1 48376U 21038Z   26001.06934750  .00001628  00000+0  12820-3 0  9997
2 48376  53.0542 295.1773 0001344  85.7626 274.3516 15.06392869256975
STARLINK-2499           
1 48377U 21038AA  26001.17998440  .00019140  00000+0  13014-2 0  9999
2 48377  53.0542 295.1840 0001343  80.3643 279.7497 15.06371398256982
STARLINK-2526           
1 48378U 21038AB  26001.12832330  .00016700  00000+0  11368-2 0  9999
2 48378  53.0540 294.9167 0001676  92.9686 267.1495 15.06418648256984
STARLINK-2612           
1 48379U 21038AC  25365.99193058 -.00001916  00000+0 -10980-3 0  9999
2 48379  53.0545 295.5264 0001291 107.1302 252.9829 15.06398510256968
STARLINK-2614           
1 48380U 21038AD  26001.13206497  .00009153  00000+0  63230-3 0  9992
2 48380  53.0548 295.4110 0002067  57.0819 303.0369 15.06414140256976
STARLINK-2630           
1 48381U 21038AE  26001.18728394  .00000887  00000+0  78400-4 0  9994
2 48381  53.0544 294.6516 0001285  98.5208 261.5926 15.06415897256996
STARLINK-2585           
1 48382U 21038AF  26001.18360236  .00008391  00000+0  58121-3 0  9997
2 48382  53.0546 294.6656 0001294  93.8044 266.3093 15.06420100256991
STARLINK-2598           
1 48385U 21038AJ  26001.10620808  .00016689  00000+0  11367-2 0  9995
2 48385  53.0543 295.0118 0001239  80.8026 279.3103 15.06397105258204
STARLINK-2606           
1 48386U 21038AK  26001.16010865  .00015035  00000+0  10255-2 0  9997
2 48386  53.0556 289.7810 0001364  85.0469 275.0676 15.06423946257058
STARLINK-2594           
1 48388U 21038AM  26001.18590814  .00016689  00000+0  11363-2 0  9995
2 48388  53.0535 289.6555 0001145 103.2412 256.8705 15.06410556257064
STARLINK-2586           
1 48390U 21038AP  26001.16979587  .00024512  00000+0  16574-2 0  9997
2 48390  53.0537 284.7276 0001373  86.2534 273.8612 15.06430227258348
STARLINK-2607           
1 48391U 21038AQ  26001.09976372  .00016752  00000+0  11404-2 0  9993
2 48391  53.0556 285.0445 0001527  96.0848 264.0315 15.06414316258332
STARLINK-2605           
1 48392U 21038AR  26001.16241976  .00021346  00000+0  14466-2 0  9993
2 48392  53.0542 284.7599 0001310  93.5761 266.5378 15.06424826258344
STARLINK-2574           
1 48395U 21038AU  26001.06666464  .00010153  00000+0  69928-3 0  9996
2 48395  53.0548 285.8180 0001304  77.8811 282.2324 15.06413579258322
STARLINK-2575           
1 48396U 21038AV  26001.01866483  .00014914  00000+0  10181-2 0  9990
2 48396  53.0544 285.4054 0001159  82.8495 277.2626 15.06397008258324
STARLINK-2590           
1 48397U 21038AW  26001.08132631  .00019505  00000+0  13245-2 0  9994
2 48397  53.0548 285.1233 0000973  82.5655 277.5444 15.06404652258339
STARLINK-2588           
1 48398U 21038AX  26001.01128747  .00027324  00000+0  18436-2 0  9996
2 48398  53.0556 285.4390 0001460 122.6729 237.4401 15.06451691258328
STARLINK-2587           
1 48399U 21038AY  26001.00760605  .00003008  00000+0  22066-3 0  9999
2 48399  53.0560 285.4549 0001404  96.3896 263.7253 15.06411322258313
STARLINK-2576           
1 48400U 21038AZ  26001.07027031  .00020676  00000+0  14024-2 0  9992
2 48400  53.0540 285.1748 0001105  86.9019 273.2096 15.06411466257119
STARLINK-2571           
1 48401U 21038BA  26001.10712479  .00003478  00000+0  25222-3 0  9998
2 48401  53.0556 285.0190 0001537  68.3833 291.7320 15.06408876257110
STARLINK-2593           
1 48404U 21038BD  25365.99286963  .00016126  00000+0  10985-2 0  9997
2 48404  53.0562 285.5221 0001386  80.7322 279.3824 15.06415623257101
STARLINK-2570           
1 48405U 21038BE  26001.18821229  .00013194  00000+0  90251-3 0  9994
2 48405  53.0556 284.6396 0001592  95.9727 264.1443 15.06418843257133
STARLINK-2568           
1 48406U 21038BF  25365.98550527  .00009510  00000+0  65639-3 0  9994
2 48406  53.0550 285.5531 0001619  64.6071 295.5086 15.06405070257100
STARLINK-2592           
1 48408U 21038BH  25365.18195617  .00000702  00000+0  66066-4 0  9993
2 48408  53.0550 289.1631 0001460 105.3344 254.7807 15.06385126256974
STARLINK-2563           
1 48410U 21038BK  26001.07257865  .00007818  00000+0  54338-3 0  9999
2 48410  53.0549 240.1635 0001706 119.4455 240.6704 15.06384281257756
STARLINK-2505           
1 48411U 21038BL  26001.02327754  .00001333  00000+0  10838-3 0  9993
2 48411  53.0539 235.3861 0001280  87.6804 272.4332 15.06393765257818
STARLINK-2581           
1 48412U 21038BM  26001.04176526  .00003550  00000+0  25710-3 0  9993
2 48412  53.0533 235.7371 0001560  89.5688 270.5480 15.06398445257818
STARLINK-2461           
1 48428U 21040A   25365.58511770  .00015144  00000+0  10351-2 0  9994
2 48428  53.0569 132.3484 0002098 102.8618 257.2606 15.06337399256294
STARLINK-2700           
1 48431U 21040D   25365.73297851  .00000690  00000+0  65231-4 0  9995
2 48431  53.0563  96.6904 0001336  85.3945 274.7197 15.06388080256802
STARLINK-2680           
1 48432U 21040E   25365.51512460  .00000768  00000+0  70470-4 0  9995
2 48432  53.0562  93.0605 0001476  95.9615 264.1543 15.06386165256830
STARLINK-2699           
1 48433U 21040F   25365.52752612 -.00001501  00000+0 -81894-4 0  9992
2 48433  53.0560  97.8891 0001142  95.4488 264.6631 15.06408965256769
STARLINK-2692           
1 48434U 21040G   25365.49211237 -.00002387  00000+0 -14156-3 0  9991
2 48434  53.0559 103.2765 0000941  81.7066 278.4029 15.06372754256698
STARLINK-2633           
1 48435U 21040H   25365.56482642  .00000094  00000+0  25206-4 0  9990
2 48435  53.0545 112.4542 0001371  87.2594 272.8552 15.06403228256560
STARLINK-2639           
1 48436U 21040J   25365.62057783  .00001033  00000+0  88234-4 0  9996
2 48436  53.0572 127.1945 0001328  86.0487 274.0654 15.06397217256366
STARLINK-2642           
1 48437U 21040K   25365.67126758  .00001022  00000+0  87508-4 0  9992
2 48437  53.0569 136.9660 0001211  94.1066 266.0061 15.06388706256231
STARLINK-2640           
1 48438U 21040L   25365.70907731 -.00000702  00000+0 -28245-4 0  9994
2 48438  53.0557 127.0644 0001175  92.7531 267.3592 15.06384875256373
STARLINK-2583           
1 48439U 21040M   25365.61321488 -.00001392  00000+0 -74578-4 0  9990
2 48439  53.0553 127.2278 0001114  84.5383 275.5733 15.06386821256362
STARLINK-2682           
1 48440U 21040N   25365.60952608 -.00001337  00000+0 -70888-4 0  9994
2 48440  53.0565 127.2409 0001440  86.9866 273.1288 15.06398269256365
STARLINK-2702           
1 48441U 21040P   25365.60583322  .00002226  00000+0  16827-3 0  9996
2 48441  53.0550 127.2573 0001380  83.0768 277.0377 15.06401154256364
STARLINK-2644           
1 48442U 21040Q   25365.66847991  .00013438  00000+0  91855-3 0  9999
2 48442  53.0539 126.9771 0001315  88.8797 271.2343 15.06430963256371
STARLINK-2663           
1 48443U 21040R   25365.59846698  .00000400  00000+0  45730-4 0  9992
2 48443  53.0553 127.2937 0001302  90.9308 269.1830 15.06394902256362
STARLINK-2645           
1 48444U 21040S   25365.66112752  .00000831  00000+0  74705-4 0  9990
2 48444  53.0571 127.0112 0001408  77.5440 282.5707 15.06393722256373
STARLINK-2634           
1 48445U 21040T   25365.59109278  .00000710  00000+0  66585-4 0  9995
2 48445  53.0550 127.3266 0001196  90.6352 269.4775 15.06390892256369
STARLINK-2655           
1 48449U 21040X   25365.71273111 -.00000008  00000+0  18391-4 0  9994
2 48449  53.0582 126.7731 0001422  92.0568 268.0584 15.06394025256382
